OBJECT_NAME,OBJECT_ID,EPOCH,MEAN_MOTION,ECCENTRICITY,INCLINATION,RA_OF_ASC_NODE,ARG_OF_PERICENTER,MEAN_ANOMALY,EPHEMERIS_TYPE,CLASSIFICATION_TYPE,NORAD_CAT_ID,ELEMENT_SET_NO,REV_AT_EPOCH,BSTAR,MEAN_MOTION_DOT,MEAN_MOTION_DDOT
STARLINK-34882,2025-244X,2026-07-16T10:47:23.090784,15.34400442,.00006383,53.1610,350.3840,353.6535,6.4460,0,U,66227,999,4139,.218651E-3,.7019E-4,0
STARLINK-35731,2025-244Y,2026-07-16T10:17:05.295264,15.34398323,.00012884,53.1595,350.2563,91.0771,269.0379,0,U,66228,999,4139,.53759505E-3,.1783E-3,0
STARLINK-35758,2025-244Z,2026-07-15T22:04:53.844096,15.34402063,.00007186,53.1604,352.7684,82.7386,277.3698,0,U,66229,999,4131,.38925107E-3,.12799E-3,0
STARLINK-35736,2025-244AA,2026-07-16T10:58:17.854176,15.30200605,.00016301,53.1605,351.8485,100.7652,259.3532,0,U,66230,999,4137,.28861467E-3,.8198E-4,0
STARLINK-35735,2025-244AB,2026-07-16T09:49:56.701920,15.34406495,.00017739,53.1600,350.8494,75.4043,284.7156,0,U,66231,999,4138,.37742904E-3,.12399E-3,0
STARLINK-35753,2025-244AC,2026-07-16T10:02:14.226144,15.30198970,.00012098,53.1604,352.3154,60.8688,299.2434,0,U,66232,999,4136,.46917382E-3,.13561E-3,0
STARLINK-35626,2025-244AD,2026-07-16T09:57:39.686688,15.30190327,.0000908,53.1595,352.2940,86.6131,273.4974,0,U,66233,999,4136,-.11141912E-3,-.3656E-4,0
STARLINK-35537,2025-245A,2026-07-16T13:44:03.086016,15.31706122,.0001408,53.1597,44.2142,95.9362,264.1800,0,U,66234,999,4100,.30884619E-3,.9232E-4,0
STARLINK-35541,2025-245B,2026-07-15T21:51:08.117568,15.31708712,.0001209,53.1610,47.9048,88.4365,271.6775,0,U,66235,999,4084,.28596E-3,.8521E-4,0
STARLINK-35454,2025-245C,2026-07-16T13:17:26.865888,15.30212227,.00016355,53.1576,45.5182,85.9144,274.2044,0,U,66236,999,4082,.23451054E-3,.6595E-4,0
STARLINK-35557,2025-245D,2026-07-16T14:04:42.662496,15.34401264,.00011176,53.1574,42.1738,83.9779,276.1351,0,U,66237,999,4103,.3278313E-3,.10716E-3,0
STARLINK-35556,2025-245E,2026-07-16T14:07:44.467968,15.34395977,.00014834,53.1587,42.1871,106.3298,253.7868,0,U,66238,999,4103,.37184009E-3,.12206E-3,0
STARLINK-35554,2025-245F,2026-07-16T07:21:37.141632,15.31697668,.00009097,53.1580,46.1103,96.4785,263.6320,0,U,66239,999,4079,.46016057E-3,.1394E-3,0
STARLINK-35546,2025-245G,2026-07-16T13:59:48.433344,15.30238554,.00015469,53.1596,44.9854,101.5025,258.6150,0,U,66240,999,4099,.72750498E-3,.21275E-3,0
STARLINK-35497,2025-245H,2026-07-16T07:37:33.505824,15.30208633,.00010765,53.1606,46.1766,79.6434,280.4689,0,U,66241,999,4090,.4523795E-3,.13066E-3,0
STARLINK-35480,2025-245J,2026-07-16T07:19:28.269120,15.30194324,.000148,53.1610,46.8052,88.2823,271.8347,0,U,66242,999,4094,.27711618E-3,.7855E-4,0
STARLINK-35495,2025-245K,2026-07-16T07:32:58.592256,15.30211359,.00014355,53.1612,46.1528,76.6488,283.4672,0,U,66243,999,4094,.33719987E-3,.9644E-4,0
STARLINK-35517,2025-245L,2026-07-16T13:40:04.822464,15.30184301,.00011457,53.1620,44.8992,108.5853,251.5273,0,U,66244,999,4078,.33614013E-3,.9604E-4,0
STARLINK-35503,2025-245M,2026-07-15T23:24:38.949984,15.30199507,.00010701,53.1617,48.3022,98.8989,261.2133,0,U,66245,999,4084,.1631266E-3,.4475E-4,0
STARLINK-35434,2025-245N,2026-07-16T14:31:05.493216,15.31716314,.00011396,53.1581,44.4139,93.1363,266.9768,0,U,66246,999,4079,.27417991E-3,.8157E-4,0
STARLINK-35481,2025-245P,2026-07-15T22:58:12.701280,15.31703051,.00013978,53.1591,47.4795,112.0000,248.1150,0,U,66247,999,4090,.23720228E-3,.7003E-4,0
STARLINK-35416,2025-245Q,2026-07-16T14:10:55.907904,15.31710954,.00016899,53.1583,44.3244,100.9970,259.1222,0,U,66248,999,4094,.55836963E-3,.17007E-3,0
STARLINK-35304,2025-245R,2026-07-16T13:37:56.631648,15.31707601,.00019939,53.1617,44.8936,76.3815,283.7409,0,U,66249,999,4077,.33788786E-3,.10137E-3,0
STARLINK-35338,2025-245S,2026-07-16T14:04:12.611712,15.31707870,.00012444,53.1587,44.2916,127.6209,232.4906,0,U,66250,999,4090,.53774342E-3,.16362E-3,0
STARLINK-35485,2025-245T,2026-07-15T23:51:50.602752,15.31710919,.00012307,53.1588,46.9996,93.0480,267.0662,0,U,66251,999,4069,.28172432E-3,.839E-4,0
STARLINK-35483,2025-245U,2026-07-16T07:36:01.584000,15.30220395,.00016437,53.1611,46.1661,73.1036,287.0145,0,U,66252,999,4090,.39089158E-3,.11243E-3,0
STARLINK-35486,2025-245V,2026-07-16T14:24:22.570272,15.31709341,.00016443,53.1593,44.3836,111.9258,248.1919,0,U,66253,999,4079,.4502179E-3,.13635E-3,0
STARLINK-35488,2025-245W,2026-07-16T13:17:18.088512,15.31711497,.00015269,53.1585,44.8036,65.9344,294.1817,0,U,66254,999,4099,.31629922E-3,.9466E-4,0
STARLINK-35616,2025-245X,2026-07-16T14:48:27.694080,15.30197201,.00012892,53.1591,45.1915,87.9589,272.1559,0,U,66255,999,4099,.25182309E-3,.7106E-4,0
STARLINK-35619,2025-245Y,2026-07-16T13:41:35.790432,15.30203898,.00013968,53.1603,44.9018,92.5375,267.5786,0,U,66256,999,4099,.50577349E-3,.14652E-3,0
STARLINK-35615,2025-245Z,2026-07-15T23:44:13.977888,15.30204848,.00011221,53.1603,47.6726,86.4746,273.6383,0,U,66257,999,4090,.44904743E-3,.12966E-3,0
STARLINK-34650,2025-245AA,2026-07-16T07:39:03.602880,15.30197501,.00013098,53.1609,46.1751,84.5963,275.5187,0,U,66258,999,4095,.24328938E-3,.6852E-4,0
STARLINK-35529,2025-245AB,2026-07-16T13:24:01.099584,15.31712793,.00014732,53.1597,44.8310,89.0620,271.0550,0,U,66259,999,4099,.38331469E-3,.11553E-3,0
STARLINK-35420,2025-245AC,2026-07-16T00:12:00.176832,15.31715897,.00010351,53.1581,47.0842,96.2423,263.8696,0,U,66260,999,4091,.26159723E-3,.7765E-4,0
STARLINK-35536,2025-245AD,2026-07-15T23:45:07.385184,15.31710644,.0001104,53.1588,46.9661,82.4015,277.7112,0,U,66261,999,4091,.29452523E-3,.8788E-4,0
STARLINK-35487,2025-245AE,2026-07-16T14:44:32.046720,15.31711347,.00013972,53.1592,44.4610,93.1868,266.9294,0,U,66262,999,4095,.2929697E-3,.874E-4,0
STARLINK-35801,2025-247A,2026-07-16T12:00:22.825152,15.34406882,.00009259,53.1607,310.4078,84.4017,275.7091,0,U,66265,999,4079,.56040346E-3,.18609E-3,0
STARLINK-35056,2025-247B,2026-07-16T12:04:14.606976,15.34401398,.00010615,53.1609,312.5533,61.2486,298.8623,0,U,66266,999,4076,.3213722E-3,.10498E-3,0
STARLINK-35550,2025-247C,2026-07-16T12:03:24.037920,15.34398481,.00016437,53.1600,310.3743,107.1234,252.9949,0,U,66267,999,4079,.42246058E-3,.13923E-3,0
STARLINK-35069,2025-247D,2026-07-16T07:37:52.499136,15.34407665,.00024687,53.1598,312.8246,98.4939,261.6344,0,U,66268,999,4074,.58417517E-3,.19417E-3,0
STARLINK-34910,2025-247E,2026-07-16T14:04:28.038432,15.34408396,.00011992,53.1588,310.1901,93.7570,266.3570,0,U,66269,999,4080,.51066296E-3,.16921E-3,0
STARLINK-35757,2025-247F,2026-07-16T07:34:08.553792,15.34404060,.00008589,53.1586,311.3872,70.7264,289.3832,0,U,66270,999,4081,.44476175E-3,.14682E-3,0
STARLINK-35745,2025-247G,2026-07-15T13:04:27.079104,15.34407909,.00012741,53.1593,316.5276,65.1337,294.9798,0,U,66271,999,4067,.58820742E-3,.19554E-3,0
STARLINK-35741,2025-247H,2026-07-16T11:48:15.776928,15.34400350,.00009315,53.1603,310.3565,85.5134,274.5975,0,U,66272,999,4084,.30094451E-3,.9805E-4,0
STARLINK-35730,2025-247J,2026-07-16T13:43:16.415328,15.34410884,.00007378,53.1598,310.1419,70.0024,290.1058,0,U,66273,999,4085,.32947691E-3,.10776E-3,0
STARLINK-35760,2025-247K,2026-07-16T07:31:49.264896,15.34397858,.00015247,53.1633,312.7998,9.3186,350.7845,0,U,66274,999,4074,.25404347E-3,.8216E-4,0
STARLINK-35752,2025-247L,2026-07-16T11:09:42.238080,15.34408367,.00017758,53.1591,312.3143,102.8012,257.3189,0,U,66275,999,4076,.48049168E-3,.15897E-3,0
STARLINK-35742,2025-247M,2026-07-16T14:44:33.585504,15.34409523,.00008895,53.1583,311.8202,92.1559,267.9546,0,U,66276,999,4083,.60056563E-3,.19975E-3,0
STARLINK-35708,2025-247N,2026-07-16T13:58:25.252608,15.34410446,.00009919,53.1595,310.2070,87.8729,272.2387,0,U,66277,999,4085,.37901053E-3,.12455E-3,0
STARLINK-35713,2025-247P,2026-07-16T11:45:13.902336,15.34406089,.00017179,53.1608,310.3308,91.7551,268.3648,0,U,66278,999,4084,.43845858E-3,.14469E-3,0
STARLINK-35724,2025-247Q,2026-07-16T12:10:10.104096,15.34409255,.00008742,53.1611,311.8626,121.0677,239.0411,0,U,66279,999,4077,.4513599E-3,.14909E-3,0
STARLINK-35726,2025-247R,2026-07-16T11:54:19.266048,15.34403234,.00015824,53.1591,310.3779,89.2668,270.8516,0,U,66280,999,4079,.3603514E-3,.11819E-3,0
STARLINK-35727,2025-247S,2026-07-16T14:02:08.830752,15.34403194,.00010289,53.1591,311.6388,80.0062,280.1057,0,U,66281,999,4078,.53948534E-3,.17897E-3,0
STARLINK-35776,2025-247T,2026-07-16T07:40:54.166368,15.34400717,.00012437,53.1604,312.8340,45.0929,315.0175,0,U,66282,999,4074,.38755118E-3,.1274E-3,0
STARLINK-35774,2025-247U,2026-07-16T14:08:12.153984,15.34402601,.00012325,53.1598,311.6622,100.0797,260.0345,0,U,66283,999,4078,.33774086E-3,.11053E-3,0
STARLINK-35830,2025-247V,2026-07-16T14:26:22.874496,15.34409607,.00010436,53.1596,311.7417,94.5445,265.5677,0,U,66284,999,4078,.37004168E-3,.1215E-3,0
STARLINK-35819,2025-247W,2026-07-16T11:27:54.423936,15.34393511,.00011051,53.1598,312.3897,87.8741,272.2389,0,U,66285,999,4076,.42347797E-3,.13955E-3,0
STARLINK-35783,2025-247X,2026-07-16T11:55:09.333984,15.34406325,.00014736,53.1616,312.5054,66.4381,293.6777,0,U,66286,999,4076,.36030371E-3,.11819E-3,0
STARLINK-34884,2025-247Y,2026-07-15T13:00:42.451200,15.34366124,.00009133,53.1591,315.0884,55.8372,304.2717,0,U,66287,999,4064,.54580365E-3,.18089E-3,0
STARLINK-34896,2025-247Z,2026-07-16T07:40:12.188064,15.34398364,.00013572,53.1590,311.4025,111.6401,248.4746,0,U,66288,999,4076,.47355151E-3,.15656E-3,0
STARLINK-35802,2025-247AA,2026-07-16T12:12:30.009024,15.34402416,.00008844,53.1593,310.4485,117.4132,242.6961,0,U,66289,999,4079,.49734219E-3,.16466E-3,0
STARLINK-35799,2025-247AB,2026-07-16T12:06:26.471520,15.34403181,.00012893,53.1604,310.4270,74.5434,285.5711,0,U,66290,999,4084,.32319232E-3,.1056E-3,0
STARLINK-35800,2025-247AC,2026-07-16T11:51:17.925408,15.34398834,.0001623,53.1600,310.3601,91.4235,268.6954,0,U,66291,999,4083,.32012177E-3,.10454E-3,0
STARLINK-35798,2025-247AD,2026-07-16T11:57:20.992896,15.34402528,.00011102,53.1596,310.3856,98.4279,261.6849,0,U,66292,999,4078,.32720438E-3,.10696E-3,0
